CAS-2T & KS-1Q          
1 41847U 16066G   21105.44373185  .00000137  00000-0  30345-4 0  9997
2 41847  98.6079 164.2882 0366161  48.5942 314.6111 14.38173833232826
NAYIF-1 (EO-88)         
1 42017U 17008BX  21105.43257074  .00002986  00000-0  11251-3 0  9999
2 42017  97.3204 174.1580 0005236 349.2020  10.9106 15.27844274231639
ZHUHAI-1 02 (CAS-4B)    
1 42759U 17034B   21105.52981697  .00000187  00000-0  24637-4 0  9990
2 42759  43.0166 167.0010 0007922 135.8746 324.2648 15.10151272211635
ZHUHAI-1 01 (CAS-4A)    
1 42761U 17034D   21105.52415247  .00000173  00000-0  23736-4 0  9990
2 42761  43.0166 166.1268 0008117 133.5889 325.8465 15.10232515211637
MAX VALIER SAT          
1 42778U 17036P   21105.12004343  .00001292  00000-0  57062-4 0  9999
2 42778  97.2623 155.7892 0013091  46.6758 313.5568 15.23405530211649
RADFXSAT (FOX-1B)       
1 43017U 17073E   21105.30111164  .00000683  00000-0  57516-4 0  9994
2 43017  97.7111  11.7859 0256108 146.1328 215.6541 14.79427626183780
FOX-1D (AO-92)          
1 43137U 18004AC  21105.47946619  .00001802  00000-0  74931-4 0  9995
2 43137  97.4102 180.1520 0010489  76.7601 283.4806 15.25036498181058
DIWATA-2B               
1 43678U 18084H   21105.46831941  .00000087  00000-0  14345-4 0  9990
2 43678  97.9126 230.4595 0008393 258.1367 101.8887 14.91731462134040
ES'HAIL 2               
1 43700U 18090A   21105.15396595  .00000146  00000-0  00000+0 0  9994
2 43700   0.0194 178.8664 0002341 238.1795 227.6891  1.00271973  8974
FOX-1CLIFF (AO-95)      
1 43770U 18099N   21104.67712292  .00000814  00000-0  79047-4 0  9996
2 43770  97.6692 176.2610 0012865 270.4456  89.5291 14.95259039128928
ITASAT 1                
1 43786U 18099AE  21104.67593016  .00000768  00000-0  74297-4 0  9994
2 43786  97.6711 176.8934 0013559 262.7971  97.1708 14.95561226128954
JY1SAT (JO-97)          
1 43803U 18099AX  21105.18519219  .00000208  00000-0  23747-4 0  9997
2 43803  97.6668 177.1520 0013693 261.1997  98.7674 14.95793282129038
UWE-4                   
1 43880U 18111E   21105.27815192  .00000691  00000-0  65399-4 0  9991
2 43880  97.6900  14.0789 0011219 321.2535  38.7882 14.96796570123635
PSAT2 (NO-104)          
1 44354U 19036R   21104.44373812  .00013960  00000-0  18635-3 0  9994
2 44354  28.5295 193.3121 0331515 302.8358  54.0726 15.11903687 99272
BRICSAT2 (NO-103)       
1 44355U 19036S   21104.45711543  .00027570  00000-0  31570-3 0  9998
2 44355  28.5246 157.8850 0277535   0.6506 359.4415 15.25933824 99630
JAISAT-1                
1 44419U 19038F   21104.44935339  .00001200  00000-0  70309-4 0  9997
2 44419  97.5826  69.4215 0021323 168.4376 191.7349 15.13574083 98114
DUCHIFAT-3              
1 44854U 19089C   21105.39928095  .00000485  00000-0  45225-4 0  9995
2 44854  36.9638 113.5031 0008789 343.0814  16.9634 14.99418425 73636
RS-44 & BREEZE-KM R/B   
1 44909U 19096E   21104.51712057  .00000034  00000-0  99003-4 0  9999
2 44909  82.5213 155.2979 0216368 242.4329 115.4645 12.79709561 60660
ORBITAL FACTORY 2 (OF-2)
1 45113U 19071C   21104.17099584  .00003051  00000-0  98608-4 0  9997
2 45113  51.6430 349.0906 0012737  63.4805 296.7482 15.35280744 67293
HUSKYSAT-1 (HO-107)     
1 45119U 19071J   21104.37945734  .00002445  00000-0  81083-4 0  9997
2 45119  51.6433 347.4796 0012072  60.9784 299.2407 15.35348029 67321
BY70-2                  
1 45857U 20042B   21105.50364531  .00001198  00000-0  17767-3 0  9993
2 45857  97.9858 181.9081 0012437  64.0318 296.2177 14.76846943 42253
SALSAT                  
1 46495U 20068K   21104.63391173  .00001195  00000-0  92258-4 0  9991
2 46495  97.6885  42.5243 0015968 290.2588  69.6921 15.03410121 29749
BY70-3                  
1 46839U 20079N   21105.46374228  .00002772  00000-0  88618-4 0  9996
2 46839  97.2439 180.5766 0008948  78.2214 292.4885 15.33244376 24554
RADFXSAT-2 (AO-109)     
1 47311U 21002C   21105.40490578  .00000781  00000-0  46337-4 0  9990
2 47311  60.6847 167.1811 0026512  10.0447 350.1163 15.21443220 13283
UVSQ-SAT                
1 47438U 21006AB  21104.69581754  .00000864  00000-0  52607-4 0  9990
2 47438  97.4934 167.0452 0011659 324.1464  35.8983 15.12989971 12411
